STARLINK-31416          
1 59355U 24060H   25352.09674859  .00000666  00000+0  33717-4 0  9996
2 59355  43.0034   0.7030 0001471 254.0385 106.0304 15.27574352 97587
STARLINK-31552          
1 59356U 24060J   25352.31474871 -.00000955  00000+0 -25194-4 0  9997
2 59356  43.0000 359.7787 0000937 267.4657  92.6087 15.27582095 97618
STARLINK-31557          
1 59357U 24060K   25352.30865674 -.00001420  00000+0 -42088-4 0  9991
2 59357  43.0010 355.3604 0000963 279.0563  81.0180 15.27579642 97669
STARLINK-31559          
1 59358U 24060L   25352.08262965 -.00007030  00000+0 -24615-3 0  9999
2 59358  43.0023   0.5949 0001175 251.8026 108.2698 15.27582611 97580
STARLINK-31501          
1 59359U 24060M   25352.30704055 -.00001180  00000+0 -33355-4 0  9998
2 59359  43.0017 359.7059 0001128 266.6850  93.3872 15.27585583 97615
STARLINK-31549          
1 59360U 24060N   25352.07105466 -.00002398  00000+0 -77678-4 0  9993
2 59360  43.0030   0.5108 0000623 291.7264  68.3521 15.27572945 97582
STARLINK-31560          
1 59361U 24060P   25352.30061239 -.00000321  00000+0 -21263-5 0  9993
2 59361  43.0010 359.6510 0001174 277.7193  82.3525 15.27578928 97614
STARLINK-31571          
1 59362U 24060Q   25352.30318334 -.00001469  00000+0 -43873-4 0  9999
2 59362  43.0005 359.6680 0001275 263.5374  96.5333 15.27584209 97616
STARLINK-31553          
1 59363U 24060R   25352.03103989 -.00000413  00000+0 -54715-5 0  9994
2 59363  43.0034 354.1309 0001041 256.3043 103.7693 15.27576462 97657
STARLINK-31547          
1 59364U 24060S   25351.69159528  .00001647  00000+0  69383-4 0  9990
2 59364  43.0028 351.5769 0001166 261.2573  98.8147 15.27570119 97654
STARLINK-31537          
1 59365U 24060T   25352.31090365 -.00002387  00000+0 -77261-4 0  9992
2 59365  43.0007 359.7295 0001453 274.8895  85.1790 15.27570301 97614
STARLINK-31451          
1 59366U 24060U   25352.32873890  .00000522  00000+0  28514-4 0  9990
2 59366  43.0012 359.0028 0001347 295.4807  64.5905 15.27572293 97624
STARLINK-31428          
1 59367U 24060V   25352.07876280  .00000517  00000+0  28295-4 0  9999
2 59367  43.0006   0.5641 0000516 260.9677  99.1117 15.27566650 97580
STARLINK-31419          
1 59368U 24060W   25352.08518909 -.00001781  00000+0 -55220-4 0  9996
2 59368  43.0042   0.6161 0000832 275.2300  84.8456 15.27571814 97587
STARLINK-31583          
1 59369U 24060X   25352.04679950 -.00002595  00000+0 -84806-4 0  9993
2 59369  43.0030 349.9411 0000597 262.5721  97.5063 15.27585838 97706
STARLINK-31461          
1 59370U 24060Y   25352.05837077 -.00001270  00000+0 -36630-4 0  9993
2 59370  43.0027 350.0278 0001089 251.5808 108.4926 15.27571348 97643
