[{"OBJECT_NAME":"STARLINK-31416","OBJECT_ID":"2024-060H","EPOCH":"2025-12-18T02:19:19.078176","MEAN_MOTION":15.27574352,"ECCENTRICITY":0.00014717,"INCLINATION":43.0034,"RA_OF_ASC_NODE":0.703,"ARG_OF_PERICENTER":254.0385,"MEAN_ANOMALY":106.0304,"EPHEMERIS_TYPE":0,"CLASSIFICATION_TYPE":"U","NORAD_CAT_ID":59355,"ELEMENT_SET_NO":999,"REV_AT_EPOCH":9758,"BSTAR":3.3716666e-5,"MEAN_MOTION_DOT":6.66e-6,"MEAN_MOTION_DDOT":0},{"OBJECT_NAME":"STARLINK-31552","OBJECT_ID":"2024-060J","EPOCH":"2025-12-18T07:33:14.288544","MEAN_MOTION":15.27582095,"ECCENTRICITY":9.371e-5,"INCLINATION":43,"RA_OF_ASC_NODE":359.7787,"ARG_OF_PERICENTER":267.4657,"MEAN_ANOMALY":92.6087,"EPHEMERIS_TYPE":0,"CLASSIFICATION_TYPE":"U","NORAD_CAT_ID":59356,"ELEMENT_SET_NO":999,"REV_AT_EPOCH":9761,"BSTAR":-2.5193979e-5,"MEAN_MOTION_DOT":-9.55e-6,"MEAN_MOTION_DDOT":0},{"OBJECT_NAME":"STARLINK-31557","OBJECT_ID":"2024-060K","EPOCH":"2025-12-18T07:24:27.942336","MEAN_MOTION":15.27579642,"ECCENTRICITY":9.633e-5,"INCLINATION":43.001,"RA_OF_ASC_NODE":355.3604,"ARG_OF_PERICENTER":279.0563,"MEAN_ANOMALY":81.018,"EPHEMERIS_TYPE":0,"CLASSIFICATION_TYPE":"U","NORAD_CAT_ID":59357,"ELEMENT_SET_NO":999,"REV_AT_EPOCH":9766,"BSTAR":-4.2088409e-5,"MEAN_MOTION_DOT":-1.42e-5,"MEAN_MOTION_DDOT":0},{"OBJECT_NAME":"STARLINK-31559","OBJECT_ID":"2024-060L","EPOCH":"2025-12-18T01:58:59.201760","MEAN_MOTION":15.27582611,"ECCENTRICITY":0.00011753,"INCLINATION":43.0023,"RA_OF_ASC_NODE":0.5949,"ARG_OF_PERICENTER":251.8026,"MEAN_ANOMALY":108.2698,"EPHEMERIS_TYPE":0,"CLASSIFICATION_TYPE":"U","NORAD_CAT_ID":59358,"ELEMENT_SET_NO":999,"REV_AT_EPOCH":9758,"BSTAR":-0.00024615207,"MEAN_MOTION_DOT":-7.03e-5,"MEAN_MOTION_DDOT":0},{"OBJECT_NAME":"STARLINK-31501","OBJECT_ID":"2024-060M","EPOCH":"2025-12-18T07:22:08.303520","MEAN_MOTION":15.27585583,"ECCENTRICITY":0.00011286,"INCLINATION":43.0017,"RA_OF_ASC_NODE":359.7059,"ARG_OF_PERICENTER":266.685,"MEAN_ANOMALY":93.3872,"EPHEMERIS_TYPE":0,"CLASSIFICATION_TYPE":"U","NORAD_CAT_ID":59359,"ELEMENT_SET_NO":999,"REV_AT_EPOCH":9761,"BSTAR":-3.3355034e-5,"MEAN_MOTION_DOT":-1.18e-5,"MEAN_MOTION_DDOT":0},{"OBJECT_NAME":"STARLINK-31549","OBJECT_ID":"2024-060N","EPOCH":"2025-12-18T01:42:19.122624","MEAN_MOTION":15.27572945,"ECCENTRICITY":6.239e-5,"INCLINATION":43.003,"RA_OF_ASC_NODE":0.5108,"ARG_OF_PERICENTER":291.7264,"MEAN_ANOMALY":68.3521,"EPHEMERIS_TYPE":0,"CLASSIFICATION_TYPE":"U","NORAD_CAT_ID":59360,"ELEMENT_SET_NO":999,"REV_AT_EPOCH":9758,"BSTAR":-7.767846e-5,"MEAN_MOTION_DOT":-2.398e-5,"MEAN_MOTION_DDOT":0},{"OBJECT_NAME":"STARLINK-31560","OBJECT_ID":"2024-060P","EPOCH":"2025-12-18T07:12:52.910496","MEAN_MOTION":15.27578928,"ECCENTRICITY":0.00011742,"INCLINATION":43.001,"RA_OF_ASC_NODE":359.651,"ARG_OF_PERICENTER":277.7193,"MEAN_ANOMALY":82.3525,"EPHEMERIS_TYPE":0,"CLASSIFICATION_TYPE":"U","NORAD_CAT_ID":59361,"ELEMENT_SET_NO":999,"REV_AT_EPOCH":9761,"BSTAR":-2.126275e-6,"MEAN_MOTION_DOT":-3.21e-6,"MEAN_MOTION_DDOT":0},{"OBJECT_NAME":"STARLINK-31571","OBJECT_ID":"2024-060Q","EPOCH":"2025-12-18T07:16:35.040576","MEAN_MOTION":15.27584209,"ECCENTRICITY":0.00012758,"INCLINATION":43.0005,"RA_OF_ASC_NODE":359.668,"ARG_OF_PERICENTER":263.5374,"MEAN_ANOMALY":96.5333,"EPHEMERIS_TYPE":0,"CLASSIFICATION_TYPE":"U","NORAD_CAT_ID":59362,"ELEMENT_SET_NO":999,"REV_AT_EPOCH":9761,"BSTAR":-4.3872758e-5,"MEAN_MOTION_DOT":-1.469e-5,"MEAN_MOTION_DDOT":0},{"OBJECT_NAME":"STARLINK-31553","OBJECT_ID":"2024-060R","EPOCH":"2025-12-18T00:44:41.846496","MEAN_MOTION":15.27576462,"ECCENTRICITY":0.00010411,"INCLINATION":43.0034,"RA_OF_ASC_NODE":354.1309,"ARG_OF_PERICENTER":256.3043,"MEAN_ANOMALY":103.7693,"EPHEMERIS_TYPE":0,"CLASSIFICATION_TYPE":"U","NORAD_CAT_ID":59363,"ELEMENT_SET_NO":999,"REV_AT_EPOCH":9765,"BSTAR":-5.471456e-6,"MEAN_MOTION_DOT":-4.13e-6,"MEAN_MOTION_DDOT":0},{"OBJECT_NAME":"STARLINK-31547","OBJECT_ID":"2024-060S","EPOCH":"2025-12-17T16:35:53.832192","MEAN_MOTION":15.27570119,"ECCENTRICITY":0.00011666,"INCLINATION":43.0028,"RA_OF_ASC_NODE":351.5769,"ARG_OF_PERICENTER":261.2573,"MEAN_ANOMALY":98.8147,"EPHEMERIS_TYPE":0,"CLASSIFICATION_TYPE":"U","NORAD_CAT_ID":59364,"ELEMENT_SET_NO":999,"REV_AT_EPOCH":9765,"BSTAR":6.9382829e-5,"MEAN_MOTION_DOT":1.647e-5,"MEAN_MOTION_DDOT":0},{"OBJECT_NAME":"STARLINK-31537","OBJECT_ID":"2024-060T","EPOCH":"2025-12-18T07:27:42.075360","MEAN_MOTION":15.27570301,"ECCENTRICITY":0.00014537,"INCLINATION":43.0007,"RA_OF_ASC_NODE":359.7295,"ARG_OF_PERICENTER":274.8895,"MEAN_ANOMALY":85.179,"EPHEMERIS_TYPE":0,"CLASSIFICATION_TYPE":"U","NORAD_CAT_ID":59365,"ELEMENT_SET_NO":999,"REV_AT_EPOCH":9761,"BSTAR":-7.7260631e-5,"MEAN_MOTION_DOT":-2.387e-5,"MEAN_MOTION_DDOT":0},{"OBJECT_NAME":"STARLINK-31451","OBJECT_ID":"2024-060U","EPOCH":"2025-12-18T07:53:23.040960","MEAN_MOTION":15.27572293,"ECCENTRICITY":0.00013477,"INCLINATION":43.0012,"RA_OF_ASC_NODE":359.0028,"ARG_OF_PERICENTER":295.4807,"MEAN_ANOMALY":64.5905,"EPHEMERIS_TYPE":0,"CLASSIFICATION_TYPE":"U","NORAD_CAT_ID":59366,"ELEMENT_SET_NO":999,"REV_AT_EPOCH":9762,"BSTAR":2.8514296e-5,"MEAN_MOTION_DOT":5.22e-6,"MEAN_MOTION_DDOT":0},{"OBJECT_NAME":"STARLINK-31428","OBJECT_ID":"2024-060V","EPOCH":"2025-12-18T01:53:25.105920","MEAN_MOTION":15.2756665,"ECCENTRICITY":5.166e-5,"INCLINATION":43.0006,"RA_OF_ASC_NODE":0.5641,"ARG_OF_PERICENTER":260.9677,"MEAN_ANOMALY":99.1117,"EPHEMERIS_TYPE":0,"CLASSIFICATION_TYPE":"U","NORAD_CAT_ID":59367,"ELEMENT_SET_NO":999,"REV_AT_EPOCH":9758,"BSTAR":2.8295404e-5,"MEAN_MOTION_DOT":5.17e-6,"MEAN_MOTION_DDOT":0},{"OBJECT_NAME":"STARLINK-31419","OBJECT_ID":"2024-060W","EPOCH":"2025-12-18T02:02:40.337376","MEAN_MOTION":15.27571814,"ECCENTRICITY":8.322e-5,"INCLINATION":43.0042,"RA_OF_ASC_NODE":0.6161,"ARG_OF_PERICENTER":275.23,"MEAN_ANOMALY":84.8456,"EPHEMERIS_TYPE":0,"CLASSIFICATION_TYPE":"U","NORAD_CAT_ID":59368,"ELEMENT_SET_NO":999,"REV_AT_EPOCH":9758,"BSTAR":-5.5219688e-5,"MEAN_MOTION_DOT":-1.781e-5,"MEAN_MOTION_DDOT":0},{"OBJECT_NAME":"STARLINK-31583","OBJECT_ID":"2024-060X","EPOCH":"2025-12-18T01:07:23.476800","MEAN_MOTION":15.27585838,"ECCENTRICITY":5.975e-5,"INCLINATION":43.003,"RA_OF_ASC_NODE":349.9411,"ARG_OF_PERICENTER":262.5721,"MEAN_ANOMALY":97.5063,"EPHEMERIS_TYPE":0,"CLASSIFICATION_TYPE":"U","NORAD_CAT_ID":59369,"ELEMENT_SET_NO":999,"REV_AT_EPOCH":9770,"BSTAR":-8.4805755e-5,"MEAN_MOTION_DOT":-2.595e-5,"MEAN_MOTION_DDOT":0},{"OBJECT_NAME":"STARLINK-31461","OBJECT_ID":"2024-060Y","EPOCH":"2025-12-18T01:24:03.234528","MEAN_MOTION":15.27571348,"ECCENTRICITY":0.00010894,"INCLINATION":43.0027,"RA_OF_ASC_NODE":350.0278,"ARG_OF_PERICENTER":251.5808,"MEAN_ANOMALY":108.4926,"EPHEMERIS_TYPE":0,"CLASSIFICATION_TYPE":"U","NORAD_CAT_ID":59370,"ELEMENT_SET_NO":999,"REV_AT_EPOCH":9764,"BSTAR":-3.6629888e-5,"MEAN_MOTION_DOT":-1.27e-5,"MEAN_MOTION_DDOT":0}]
